STARLINK-31392          
1 59530U 24073V   26068.41868452 -.00001949  00000+0 -61324-4 0  9992
2 59530  43.0053 319.5899 0002057 264.0165  96.0453 15.27568337106136
PHISAT 2                
1 60470U 24149C   26068.78834181  .00008925  00000+0  31421-3 0  9996
2 60470  97.3806 148.6498 0001175 168.6230 191.5037 15.29548631 86792
